[
    {
        "Altitude(m)": 571727.9378291767,
        "Argument of Periapsis(deg)": 0.019868973332140504,
        "Eccentricity": 0.0,
        "Inclination(deg)": 53.0,
        "Latitude(deg)": -52.84561681356978,
        "Longitude(deg)": -95.89453840921547,
        "Mean Anomaly(deg)": -95.17972139726724,
        "RAAN(deg)": 104.97043010558406,
        "Satellite Name": "Starlink Shell 1 476",
        "Satellite Number": 476,
        "Semi-Major Axis(m)": 6931778.249405717,
        "Time(s)": 570
    },
    {
        "Altitude(m)": 571754.6556578899,
        "Argument of Periapsis(deg)": 0.02021755181165174,
        "Eccentricity": 0.0,
        "Inclination(deg)": 53.0,
        "Latitude(deg)": -52.91507218677944,
        "Longitude(deg)": -94.90994127238615,
        "Mean Anomaly(deg)": -94.55289019371047,
        "RAAN(deg)": 104.96991133550658,
        "Satellite Name": "Starlink Shell 1 476",
        "Satellite Number": 476,
        "Semi-Major Axis(m)": 6931778.249405717,
        "Time(s)": 580
    },
    {
        "Altitude(m)": 571777.9285122436,
        "Argument of Periapsis(deg)": 0.020566130291162974,
        "Eccentricity": 0.0,
        "Inclination(deg)": 53.0,
        "Latitude(deg)": -52.975646088868196,
        "Longitude(deg)": -93.92227225378109,
        "Mean Anomaly(deg)": -93.92605899015382,
        "RAAN(deg)": 104.9693925654291,
        "Satellite Name": "Starlink Shell 1 476",
        "Satellite Number": 476,
        "Semi-Major Axis(m)": 6931778.249405717,
        "Time(s)": 590
    },
    {
        "Altitude(m)": 571797.7470824873,
        "Argument of Periapsis(deg)": 0.020914708770674213,
        "Eccentricity": 0.0,
        "Inclination(deg)": 53.0,
        "Latitude(deg)": -53.02729454026604,
        "Longitude(deg)": -92.93193889344596,
        "Mean Anomaly(deg)": -93.2992277865971,
        "RAAN(deg)": 104.96887379535163,
        "Satellite Name": "Starlink Shell 1 476",
        "Satellite Number": 476,
        "Semi-Major Axis(m)": 6931778.249405717,
        "Time(s)": 600
    },
    {
        "Altitude(m)": 571814.1034369406,
        "Argument of Periapsis(deg)": 0.021263287250185448,
        "Eccentricity": 0.0,
        "Inclination(deg)": 53.0,
        "Latitude(deg)": -53.069979815261014,
        "Longitude(deg)": -91.93935648371571,
        "Mean Anomaly(deg)": -92.67239658304035,
        "RAAN(deg)": 104.96835502527418,
        "Satellite Name": "Starlink Shell 1 476",
        "Satellite Number": 476,
        "Semi-Major Axis(m)": 6931778.249405717,
        "Time(s)": 610
    },
    {
        "Altitude(m)": 571826.9910254191,
        "Argument of Periapsis(deg)": 0.021611865729696686,
        "Eccentricity": 0.0,
        "Inclination(deg)": 53.0,
        "Latitude(deg)": -53.103670576673856,
        "Longitude(deg)": -90.94494641175724,
        "Mean Anomaly(deg)": -92.04556537948362,
        "RAAN(deg)": 104.9678362551967,
        "Satellite Name": "Starlink Shell 1 476",
        "Satellite Number": 476,
        "Semi-Major Axis(m)": 6931778.249405717,
        "Time(s)": 620
    },
    {
        "Altitude(m)": 571836.4046820755,
        "Argument of Periapsis(deg)": 0.02196044420920792,
        "Eccentricity": 0.0,
        "Inclination(deg)": 53.0,
        "Latitude(deg)": -53.12834198869233,
        "Longitude(deg)": -89.94913613592502,
        "Mean Anomaly(deg)": -91.41873417592691,
        "RAAN(deg)": 104.96731748511922,
        "Satellite Name": "Starlink Shell 1 476",
        "Satellite Number": 476,
        "Semi-Major Axis(m)": 6931778.249405717,
        "Time(s)": 630
    },
    {
        "Altitude(m)": 571842.3406276399,
        "Argument of Periapsis(deg)": 0.02230902268871916,
        "Eccentricity": 0.0,
        "Inclination(deg)": 53.0,
        "Latitude(deg)": -53.14397580692067,
        "Longitude(deg)": -88.95235660167877,
        "Mean Anomaly(deg)": -90.79190297237022,
        "RAAN(deg)": 104.96679871504175,
        "Satellite Name": "Starlink Shell 1 476",
        "Satellite Number": 476,
        "Semi-Major Axis(m)": 6931778.249405717,
        "Time(s)": 640
    },
    {
        "Altitude(m)": 571844.7964710483,
        "Argument of Periapsis(deg)": 0.022657601168230398,
        "Eccentricity": 0.0,
        "Inclination(deg)": 53.0,
        "Latitude(deg)": -53.150560444881656,
        "Longitude(deg)": -87.95504214869305,
        "Mean Anomaly(deg)": -90.16507176881349,
        "RAAN(deg)": 104.96627994496427,
        "Satellite Name": "Starlink Shell 1 476",
        "Satellite Number": 476,
        "Semi-Major Axis(m)": 6931778.249405717,
        "Time(s)": 650
    },
    {
        "Altitude(m)": 571843.7712104867,
        "Argument of Periapsis(deg)": 0.023006179647741636,
        "Eccentricity": 0.0,
        "Inclination(deg)": 53.0,
        "Latitude(deg)": -53.14809101640526,
        "Longitude(deg)": -86.95762871583865,
        "Mean Anomaly(deg)": -89.5382405652568,
        "RAAN(deg)": 104.9657611748868,
        "Satellite Name": "Starlink Shell 1 476",
        "Satellite Number": 476,
        "Semi-Major Axis(m)": 6931778.249405717,
        "Time(s)": 660
    },
    {
        "Altitude(m)": 571839.2652338152,
        "Argument of Periapsis(deg)": 0.023354758127252868,
        "Eccentricity": 0.0,
        "Inclination(deg)": 53.0,
        "Latitude(deg)": -53.13656935354011,
        "Longitude(deg)": -85.96055203441455,
        "Mean Anomaly(deg)": -88.91140936170005,
        "RAAN(deg)": 104.96524240480935,
        "Satellite Name": "Starlink Shell 1 476",
        "Satellite Number": 476,
        "Semi-Major Axis(m)": 6931778.249405717,
        "Time(s)": 670
    },
    {
        "Altitude(m)": 571831.2803184199,
        "Argument of Periapsis(deg)": 0.023703336606764106,
        "Eccentricity": 0.0,
        "Inclination(deg)": 53.0,
        "Latitude(deg)": -53.11600399983424,
        "Longitude(deg)": -84.96424733207505,
        "Mean Anomaly(deg)": -88.28457815814333,
        "RAAN(deg)": 104.96472363473187,
        "Satellite Name": "Starlink Shell 1 476",
        "Satellite Number": 476,
        "Semi-Major Axis(m)": 6931778.249405717,
        "Time(s)": 680
    },
    {
        "Altitude(m)": 571819.8196304387,
        "Argument of Periapsis(deg)": 0.024051915086275345,
        "Eccentricity": 0.0,
        "Inclination(deg)": 53.0,
        "Latitude(deg)": -53.086410179043064,
        "Longitude(deg)": -83.96914753129037,
        "Mean Anomaly(deg)": -87.65774695458667,
        "RAAN(deg)": 104.96420486465438,
        "Satellite Name": "Starlink Shell 1 476",
        "Satellite Number": 476,
        "Semi-Major Axis(m)": 6931778.249405717,
        "Time(s)": 690
    },
    {
        "Altitude(m)": 571804.8877233882,
        "Argument of Periapsis(deg)": 0.024400493565786583,
        "Eccentricity": 0.0,
        "Inclination(deg)": 53.0,
        "Latitude(deg)": -53.04780973953245,
        "Longitude(deg)": -82.97568146471399,
        "Mean Anomaly(deg)": -87.03091575102991,
        "RAAN(deg)": 104.96368609457691,
        "Satellite Name": "Starlink Shell 1 476",
        "Satellite Number": 476,
        "Semi-Major Axis(m)": 6931778.249405717,
        "Time(s)": 700
    },
    {
        "Altitude(m)": 571786.4905362168,
        "Argument of Periapsis(deg)": 0.024749072045297815,
        "Eccentricity": 0.0,
        "Inclination(deg)": 53.0,
        "Latitude(deg)": -53.000231074852664,
        "Longitude(deg)": -81.98427362959742,
        "Mean Anomaly(deg)": -86.4040845474732,
        "RAAN(deg)": 104.96316732449944,
        "Satellite Name": "Starlink Shell 1 476",
        "Satellite Number": 476,
        "Semi-Major Axis(m)": 6931778.249405717,
        "Time(s)": 710
    },
    {
        "Altitude(m)": 571764.6353907227,
        "Argument of Periapsis(deg)": 0.025097650524809053,
        "Eccentricity": 0.0,
        "Inclination(deg)": 53.0,
        "Latitude(deg)": -52.943709021157076,
        "Longitude(deg)": -80.99534246440179,
        "Mean Anomaly(deg)": -85.7772533439165,
        "RAAN(deg)": 104.96264855442196,
        "Satellite Name": "Starlink Shell 1 476",
        "Satellite Number": 476,
        "Semi-Major Axis(m)": 6931778.249405717,
        "Time(s)": 720
    },
    {
        "Altitude(m)": 571739.3309884038,
        "Argument of Periapsis(deg)": 0.02544622900432029,
        "Eccentricity": 0.0,
        "Inclination(deg)": 53.0,
        "Latitude(deg)": -52.87828473232904,
        "Longitude(deg)": -80.00929866892325,
        "Mean Anomaly(deg)": -85.1504221403598,
        "RAAN(deg)": 104.96212978434448,
        "Satellite Name": "Starlink Shell 1 476",
        "Satellite Number": 476,
        "Semi-Major Axis(m)": 6931778.249405717,
        "Time(s)": 730
    },
    {
        "Altitude(m)": 571710.5874066887,
        "Argument of Periapsis(deg)": 0.02579480748383153,
        "Eccentricity": 0.0,
        "Inclination(deg)": 53.0,
        "Latitude(deg)": -52.804005533857,
        "Longitude(deg)": -79.0265450886642,
        "Mean Anomaly(deg)": -84.52359093680307,
        "RAAN(deg)": 104.961611014267,
        "Satellite Name": "Starlink Shell 1 476",
        "Satellite Number": 476,
        "Semi-Major Axis(m)": 6931778.249405717,
        "Time(s)": 740
    },
    {
        "Altitude(m)": 571678.4160945899,
        "Argument of Periapsis(deg)": 0.026143385963342765,
        "Eccentricity": 0.0,
        "Inclination(deg)": 53.0,
        "Latitude(deg)": -52.72092475665757,
        "Longitude(deg)": -78.0474751448805,
        "Mean Anomaly(deg)": -83.89675973324636,
        "RAAN(deg)": 104.96109224418954,
        "Satellite Name": "Starlink Shell 1 476",
        "Satellite Number": 476,
        "Semi-Major Axis(m)": 6931778.249405717,
        "Time(s)": 750
    }
]